OBJECT_NAME,OBJECT_ID,EPOCH,MEAN_MOTION,ECCENTRICITY,INCLINATION,RA_OF_ASC_NODE,ARG_OF_PERICENTER,MEAN_ANOMALY,EPHEMERIS_TYPE,CLASSIFICATION_TYPE,NORAD_CAT_ID,ELEMENT_SET_NO,REV_AT_EPOCH,BSTAR,MEAN_MOTION_DOT,MEAN_MOTION_DDOT
STARLINK-3914,2022-049AR,2026-06-18T18:39:54.905184,15.08830911,.0001074,53.1607,315.2113,83.7294,276.3820,0,U,52490,999,22765,.20011E-5,-.256E-5,0
STARLINK-3908,2022-049AS,2026-06-18T18:50:30.657120,15.08834521,.0001206,53.1614,315.1783,80.6543,279.4585,0,U,52491,999,22765,.31623E-4,.215E-5,0
STARLINK-3916,2022-049AT,2026-06-18T18:29:18.623616,15.08833704,.0001274,53.1618,315.2445,95.5983,264.5154,0,U,52492,999,22765,.3901E-4,.333E-5,0
STARLINK-3883,2022-049AU,2026-06-18T17:09:49.628736,15.08835021,.0001186,53.1605,315.4925,84.9803,275.1324,0,U,52493,999,22764,.16964E-4,-.18E-6,0
STARLINK-3857,2022-049AV,2026-06-18T20:00:01.999008,15.17077773,.0001383,53.1609,314.7627,64.0270,81.2473,0,U,52494,999,563,.44103E-2,.89181E-3,0
STARLINK-3871,2022-049AX,2026-06-18T15:53:38.812128,15.08836811,.0001176,53.1602,310.7305,88.9605,271.1521,0,U,52496,999,22770,-.22513E-5,-.324E-5,0
STARLINK-3884,2022-049AY,2026-06-18T16:48:37.516608,15.08834050,.0001324,53.1619,315.5579,89.4194,270.6949,0,U,52497,999,22764,.15974E-4,-.34E-6,0
STARLINK-3925,2022-049AZ,2026-06-18T16:12:51.783840,15.08832207,.0001234,53.1615,305.6694,84.6768,275.4364,0,U,52498,999,22777,-.15538E-4,-.535E-5,0
STARLINK-3894,2022-049BA,2026-06-18T20:00:01.999008,15.80303338,.000116,53.2191,305.0362,26.5308,71.7747,0,U,52499,999,588,.48834E-2,.104107E-1,0
STARLINK-3866,2022-049BB,2026-06-18T14:32:10.352832,15.08829821,.0000794,53.1614,305.9818,101.9049,258.2032,0,U,52500,999,22776,.16429E-4,-.26E-6,0
STARLINK-3907,2022-049BC,2026-06-18T16:11:29.690880,15.08834576,.0001073,53.1603,315.4706,100.0509,260.0604,0,U,52501,999,22764,.40295E-5,-.224E-5,0
STARLINK-3912,2022-049BD,2026-06-18T14:26:52.832832,15.08829866,.0001289,53.1617,306.0291,91.2626,268.8513,0,U,52502,999,22776,.33638E-5,-.234E-5,0
STARLINK-3861,2022-049BE,2026-06-17T15:55:33.452832,15.08833020,.00012533,53.1604,310.1033,90.7109,269.4026,0,U,52503,999,22762,.15986492E-4,-.34E-6,0
STARLINK-3958,2022-051C,2026-06-18T19:01:04.471968,15.08850745,.0001308,53.1607,35.1428,66.9431,293.1698,0,U,52535,999,22670,.1157E-3,.1554E-4,0
STARLINK-3964,2022-051D,2026-06-18T18:55:48.300672,15.08832116,.0001251,53.1601,35.1626,87.7651,272.3484,0,U,52536,999,22670,.55614E-4,.597E-5,0
STARLINK-3897,2022-051E,2026-06-18T18:23:58.756992,15.08833565,.000141,53.1608,35.0704,90.4110,269.7043,0,U,52537,999,22670,.27683E-6,-.284E-5,0
STARLINK-3933,2022-051F,2026-06-18T20:00:01.999008,15.18940954,.0001401,53.1594,34.7398,45.4359,10.1300,0,U,52538,999,573,.20751E-2,.4383E-3,0
STARLINK-3757,2022-051G,2026-06-18T18:45:12.578112,15.08832148,.0001245,53.1602,35.1980,78.5558,281.5573,0,U,52539,999,22670,-.19936E-5,-.32E-5,0
STARLINK-3940,2022-051H,2026-06-18T18:29:19.203360,15.08843870,.0001402,53.1600,35.2854,93.7110,266.4041,0,U,52540,999,22670,-.12171E-4,-.482E-5,0
STARLINK-3845,2022-051J,2026-06-18T19:13:41.647008,15.08831665,.0001237,53.1610,40.1074,81.2530,278.8602,0,U,52541,999,22663,.29144E-4,.176E-5,0
STARLINK-3937,2022-051K,2026-06-18T20:00:01.999008,15.17475646,.0002375,53.1591,34.7693,67.4091,56.3288,0,U,52542,999,584,.54329E-3,.10717E-3,0
STARLINK-3926,2022-051L,2026-06-18T18:34:35.848128,15.08857500,.0001431,53.1605,35.2278,87.9666,272.1489,0,U,52543,999,22670,-.26156E-3,-.4451E-4,0
STARLINK-3944,2022-051M,2026-06-18T19:03:05.810400,15.08832268,.0001503,53.1611,40.1521,95.6390,264.4773,0,U,52544,999,22663,-.13281E-4,-.499E-5,0
STARLINK-3948,2022-051P,2026-06-18T20:00:01.999008,15.16331952,.0001426,53.1608,34.5201,104.6021,181.0038,0,U,52546,999,583,.84846E-3,.16375E-3,0
STARLINK-3931,2022-051R,2026-06-18T08:14:36.513888,15.08832861,.0001248,53.1603,37.1663,90.5982,269.5153,0,U,52548,999,22664,.48221E-4,.479E-5,0
STARLINK-3935,2022-051S,2026-06-18T21:24:11.222784,15.08833281,.0001336,53.1614,34.7025,91.7715,268.3429,0,U,52549,999,22672,-.52431E-5,-.371E-5,0
STARLINK-3965,2022-051T,2026-06-18T00:28:16.535712,15.08834678,.00013608,53.1613,38.6221,89.6845,270.4302,0,U,52550,999,22659,.52853399E-4,.553E-5,0
STARLINK-3969,2022-051U,2026-06-18T21:18:53.265600,15.08833977,.0001349,53.1609,34.7183,86.1337,273.9809,0,U,52551,999,22672,.30087E-4,.191E-5,0
STARLINK-3966,2022-051V,2026-06-17T22:58:13.028736,15.08834608,.00013825,53.1611,39.0560,93.3621,266.7528,0,U,52552,999,22658,.25130142E-4,.112E-5,0
STARLINK-3858,2022-051W,2026-06-18T23:49:24.979008,16.06024579,.000155,53.2185,14.9054,52.6388,307.4787,0,U,52553,999,22701,.16184E-2,.1199874E-1,.83966E-3
