STARLINK-3914           
1 52490U 22049AR  26169.77771881 -.00000256  00000+0  20011-5 0  9999
2 52490  53.1607 315.2113 0001074  83.7294 276.3820 15.08830911227651
STARLINK-3908           
1 52491U 22049AS  26169.78507705  .00000215  00000+0  31623-4 0  9997
2 52491  53.1614 315.1783 0001206  80.6543 279.4585 15.08834521227655
STARLINK-3916           
1 52492U 22049AT  26169.77035444  .00000333  00000+0  39010-4 0  9992
2 52492  53.1618 315.2445 0001274  95.5983 264.5154 15.08833704227653
STARLINK-3883           
1 52493U 22049AU  26169.71515774 -.00000018  00000+0  16964-4 0  9990
2 52493  53.1605 315.4925 0001186  84.9803 275.1324 15.08835021227640
STARLINK-3857           
1 52494U 22049AV  26169.83335647  .00089181  00000+0  44103-2 0  9994
2 52494  53.1609 314.7627 0001383  64.0270  81.2473 15.17077773  5638
STARLINK-3871           
1 52496U 22049AX  26169.66225477 -.00000324  00000+0 -22513-5 0  9994
2 52496  53.1602 310.7305 0001176  88.9605 271.1521 15.08836811227703
STARLINK-3884           
1 52497U 22049AY  26169.70043422 -.00000034  00000+0  15974-4 0  9997
2 52497  53.1619 315.5579 0001324  89.4194 270.6949 15.08834050227646
STARLINK-3925           
1 52498U 22049AZ  26169.67559935 -.00000535  00000+0 -15538-4 0  9998
2 52498  53.1615 305.6694 0001234  84.6768 275.4364 15.08832207227775
STARLINK-3894           
1 52499U 22049BA  26169.83335647  .01041070  00000+0  48834-2 0  9990
2 52499  53.2191 305.0362 0001160  26.5308  71.7747 15.80303338  5881
STARLINK-3866           
1 52500U 22049BB  26169.60567538 -.00000026  00000+0  16429-4 0  9997
2 52500  53.1614 305.9818 0000794 101.9049 258.2032 15.08829821227762
STARLINK-3907           
1 52501U 22049BC  26169.67464920 -.00000224  00000+0  40295-5 0  9995
2 52501  53.1603 315.4706 0001073 100.0509 260.0604 15.08834576227641
STARLINK-3912           
1 52502U 22049BD  26169.60200038 -.00000234  00000+0  33638-5 0  9991
2 52502  53.1617 306.0291 0001289  91.2626 268.8513 15.08829866227766
STARLINK-3861           
1 52503U 22049BE  26168.66358163 -.00000034  00000+0  15986-4 0  9993
2 52503  53.1604 310.1033 0001253  90.7109 269.4026 15.08833020227622
STARLINK-3958           
1 52535U 22051C   26169.79241287  .00001554  00000+0  11570-3 0  9995
2 52535  53.1607  35.1428 0001308  66.9431 293.1698 15.08850745226706
STARLINK-3964           
1 52536U 22051D   26169.78875348  .00000597  00000+0  55614-4 0  9990
2 52536  53.1601  35.1626 0001251  87.7651 272.3484 15.08832116226707
STARLINK-3897           
1 52537U 22051E   26169.76665228 -.00000284  00000+0  27683-6 0  9994
2 52537  53.1608  35.0704 0001410  90.4110 269.7043 15.08833565226709
STARLINK-3933           
1 52538U 22051F   26169.83335647  .00043830  00000+0  20751-2 0  9990
2 52538  53.1594  34.7398 0001401  45.4359  10.1300 15.18940954  5738
STARLINK-3757           
1 52539U 22051G   26169.78139558 -.00000320  00000+0 -19936-5 0  9993
2 52539  53.1602  35.1980 0001245  78.5558 281.5573 15.08832148226707
STARLINK-3940           
1 52540U 22051H   26169.77036115 -.00000482  00000+0 -12171-4 0  9991
2 52540  53.1600  35.2854 0001402  93.7110 266.4041 15.08843870226702
STARLINK-3845           
1 52541U 22051J   26169.80117647  .00000176  00000+0  29144-4 0  9992
2 52541  53.1610  40.1074 0001237  81.2530 278.8602 15.08831665226638
STARLINK-3937           
1 52542U 22051K   26169.83335647  .00010717  00000+0  54329-3 0  9992
2 52542  53.1591  34.7693 0002375  67.4091  56.3288 15.17475646  5845
STARLINK-3926           
1 52543U 22051L   26169.77402602 -.00004451  00000+0 -26156-3 0  9999
2 52543  53.1605  35.2278 0001431  87.9666 272.1489 15.08857500226708
STARLINK-3944           
1 52544U 22051M   26169.79381725 -.00000499  00000+0 -13281-4 0  9998
2 52544  53.1611  40.1521 0001503  95.6390 264.4773 15.08832268226638
STARLINK-3948           
1 52546U 22051P   26169.83335647  .00016375  00000+0  84846-3 0  9999
2 52546  53.1608  34.5201 0001426 104.6021 181.0038 15.16331952  5832
STARLINK-3931           
1 52548U 22051R   26169.34347817  .00000479  00000+0  48221-4 0  9995
2 52548  53.1603  37.1663 0001248  90.5982 269.5153 15.08832861226641
STARLINK-3935           
1 52549U 22051S   26169.89179656 -.00000371  00000+0 -52431-5 0  9992
2 52549  53.1614  34.7025 0001336  91.7715 268.3429 15.08833281226723
STARLINK-3965           
1 52550U 22051T   26169.01963583  .00000553  00000+0  52853-4 0  9995
2 52550  53.1613  38.6221 0001360  89.6845 270.4302 15.08834678226592
STARLINK-3969           
1 52551U 22051U   26169.88811650  .00000191  00000+0  30087-4 0  9991
2 52551  53.1609  34.7183 0001349  86.1337 273.9809 15.08833977226723
STARLINK-3966           
1 52552U 22051V   26168.95709524  .00000112  00000+0  25130-4 0  9991
2 52552  53.1611  39.0560 0001382  93.3621 266.7528 15.08834608226581
STARLINK-3858           
1 52553U 22051W   26169.99265022  .01199874  83966-3  16184-2 0  9995
2 52553  53.2185  14.9054 0001550  52.6388 307.4787 16.06024579227010
